start=new Date('2022-08-26T00:00:00.000Z').valueOf();
sats=[{"PERIAPSIS":"538.238","SITE":"AFETR","LAUNCH_DATE":"2022-05-18","APOAPSIS":"541.200","ECCENTRICITY":"0.00021410","DECAY_DATE":null,"MEAN_ELEMENT_THEORY":"SGP4","OBJECT_NAME":"STARLINK-3774","NORAD_CAT_ID":"52680","PERIOD":"95.437","MEAN_ANOMALY":"126.0581","OBJECT_ID":"2022-053AA","CLASSIFICATION_TYPE":"U","RCS_SIZE":"LARGE","MEAN_MOTION_DDOT":"0.0000000000000","EPHEMERIS_TYPE":"0","MEAN_MOTION_DOT":"-0.00008335","BSTAR":"-0.00050607000000","RA_OF_ASC_NODE":"183.1145","INCLINATION":"53.2150","TLE_LINE1":"1 52680U 22053AA  22237.91667824 -.00008335  00000-0 -50607-3 0  9994","REF_FRAME":"TEME","GP_ID":"211009070","FILE":"3547674","TLE_LINE2":"2 52680  53.2150 183.1145 0002141  62.8521 126.0581 15.08848542  1306","REV_AT_EPOCH":"130","OBJECT_TYPE":"PAYLOAD","COUNTRY_CODE":"US","ELEMENT_SET_NO":"999","CENTER_NAME":"EARTH","TIME_SYSTEM":"UTC","MEAN_MOTION":"15.08848542","ARG_OF_PERICENTER":"62.8521","EPOCH":"2022-08-25T22:00:00.999936","SEMIMAJOR_AXIS":"6917.854"},{"RA_OF_ASC_NODE":"183.1077","INCLINATION":"53.2154","TLE_LINE1":"1 52681U 22053AB  22237.91667824 -.00008257  00000-0 -50097-3 0  9991","REF_FRAME":"TEME","GP_ID":"211009620","FILE":"3547674","TLE_LINE2":"2 52681  53.2154 183.1077 0002568  49.9650 238.9471 15.08858239  1302","REV_AT_EPOCH":"130","OBJECT_TYPE":"PAYLOAD","COUNTRY_CODE":"US","ELEMENT_SET_NO":"999","CENTER_NAME":"EARTH","TIME_SYSTEM":"UTC","MEAN_MOTION":"15.08858239","ARG_OF_PERICENTER":"49.9650","EPOCH":"2022-08-25T22:00:00.999936","SEMIMAJOR_AXIS":"6917.825","SITE":"AFETR","PERIAPSIS":"537.913","LAUNCH_DATE":"2022-05-18","ECCENTRICITY":"0.00025680","APOAPSIS":"541.466","DECAY_DATE":null,"MEAN_ELEMENT_THEORY":"SGP4","OBJECT_NAME":"STARLINK-4068","NORAD_CAT_ID":"52681","PERIOD":"95.436","MEAN_ANOMALY":"238.9471","OBJECT_ID":"2022-053AB","CLASSIFICATION_TYPE":"U","RCS_SIZE":"LARGE","MEAN_MOTION_DDOT":"0.0000000000000","EPHEMERIS_TYPE":"0","BSTAR":"-0.00050097000000","MEAN_MOTION_DOT":"-0.00008257"},{"OBJECT_NAME":"STARLINK-4017","MEAN_ELEMENT_THEORY":"SGP4","PERIOD":"95.438","NORAD_CAT_ID":"52682","LAUNCH_DATE":"2022-05-18","SITE":"AFETR","PERIAPSIS":"538.089","APOAPSIS":"541.397","ECCENTRICITY":"0.00023910","DECAY_DATE":null,"MEAN_MOTION_DDOT":"0.0000000000000","RCS_SIZE":"LARGE","MEAN_MOTION_DOT":"-0.00006084","BSTAR":"-0.00036442000000","EPHEMERIS_TYPE":"0","MEAN_ANOMALY":"178.3936","OBJECT_ID":"2022-053AC","CLASSIFICATION_TYPE":"U","REV_AT_EPOCH":"130","TLE_LINE2":"2 52682  53.2151 183.1092 0002391  50.5310 178.3936 15.08840653  1306","REF_FRAME":"TEME","RA_OF_ASC_NODE":"183.1092","INCLINATION":"53.2151","TLE_LINE1":"1 52682U 22053AC  22237.91667824 -.00006084  00000-0 -36442-3 0  9996","GP_ID":"211009351","FILE":"3547674","ARG_OF_PERICENTER":"50.5310","EPOCH":"2022-08-25T22:00:00.999936","MEAN_MOTION":"15.08840653","SEMIMAJOR_AXIS":"6917.878","ELEMENT_SET_NO":"999","COUNTRY_CODE":"US","OBJECT_TYPE":"PAYLOAD","TIME_SYSTEM":"UTC","CENTER_NAME":"EARTH"},{"SEMIMAJOR_AXIS":"6917.766","ARG_OF_PERICENTER":"55.7085","EPOCH":"2022-08-25T22:00:00.999936","MEAN_MOTION":"15.08877314","TIME_SYSTEM":"UTC","CENTER_NAME":"EARTH","ELEMENT_SET_NO":"999","OBJECT_TYPE":"PAYLOAD","COUNTRY_CODE":"US","REV_AT_EPOCH":"130","TLE_LINE2":"2 52683  53.2149 183.1084 0002478  55.7085 273.2011 15.08877314  1300","FILE":"3547674","GP_ID":"211009763","REF_FRAME":"TEME","TLE_LINE1":"1 52683U 22053AD  22237.91667824 -.00051094  00000-0 -32116-2 0  9991","RA_OF_ASC_NODE":"183.1084","INCLINATION":"53.2149","BSTAR":"-0.00321160000000","MEAN_MOTION_DOT":"-0.00051094","EPHEMERIS_TYPE":"0","MEAN_MOTION_DDOT":"0.0000000000000","RCS_SIZE":"LARGE","CLASSIFICATION_TYPE":"U","OBJECT_ID":"2022-053AD","MEAN_ANOMALY":"273.2011","PERIOD":"95.435","NORAD_CAT_ID":"52683","OBJECT_NAME":"STARLINK-4039","MEAN_ELEMENT_THEORY":"SGP4","DECAY_DATE":null,"ECCENTRICITY":"0.00024780","APOAPSIS":"541.346","LAUNCH_DATE":"2022-05-18","SITE":"AFETR","PERIAPSIS":"537.917"},{"SITE":"AFETR","PERIAPSIS":"538.060","LAUNCH_DATE":"2022-05-18","DECAY_DATE":null,"ECCENTRICITY":"0.00023790","APOAPSIS":"541.351","MEAN_ELEMENT_THEORY":"SGP4","OBJECT_NAME":"STARLINK-4014","NORAD_CAT_ID":"52684","PERIOD":"95.437","OBJECT_ID":"2022-053AE","MEAN_ANOMALY":"189.2967","CLASSIFICATION_TYPE":"U","RCS_SIZE":"LARGE","MEAN_MOTION_DDOT":"0.0000000000000","EPHEMERIS_TYPE":"0","BSTAR":"-0.00034325000000","MEAN_MOTION_DOT":"-0.00005749","TLE_LINE1":"1 52684U 22053AE  22237.91667824 -.00005749  00000-0 -34325-3 0  9993","INCLINATION":"53.2157","RA_OF_ASC_NODE":"183.1102","REF_FRAME":"TEME","FILE":"3547674","GP_ID":"211009489","TLE_LINE2":"2 52684  53.2157 183.1102 0002379  59.6086 189.2967 15.08853072  1306","REV_AT_EPOCH":"130","OBJECT_TYPE":"PAYLOAD","COUNTRY_CODE":"US","ELEMENT_SET_NO":"999","CENTER_NAME":"EARTH","TIME_SYSTEM":"UTC","MEAN_MOTION":"15.08853072","ARG_OF_PERICENTER":"59.6086","EPOCH":"2022-08-25T22:00:00.999936","SEMIMAJOR_AXIS":"6917.840"},{"CLASSIFICATION_TYPE":"U","OBJECT_ID":"2022-053AF","MEAN_ANOMALY":"311.7567","MEAN_MOTION_DOT":"-0.00008723","BSTAR":"-0.00053054000000","EPHEMERIS_TYPE":"0","MEAN_MOTION_DDOT":"0.0000000000000","RCS_SIZE":"LARGE","DECAY_DATE":null,"APOAPSIS":"541.514","ECCENTRICITY":"0.00025570","LAUNCH_DATE":"2022-05-18","PERIAPSIS":"537.977","SITE":"AFETR","PERIOD":"95.438","NORAD_CAT_ID":"52685","OBJECT_NAME":"STARLINK-4029","MEAN_ELEMENT_THEORY":"SGP4","TIME_SYSTEM":"UTC","CENTER_NAME":"EARTH","ELEMENT_SET_NO":"999","COUNTRY_CODE":"US","OBJECT_TYPE":"PAYLOAD","SEMIMAJOR_AXIS":"6917.881","ARG_OF_PERICENTER":"57.1554","EPOCH":"2022-08-25T22:00:00.999936","MEAN_MOTION":"15.08839959","FILE":"3547674","GP_ID":"211009203","REF_FRAME":"TEME","TLE_LINE1":"1 52685U 22053AF  22237.91667824 -.00008723  00000-0 -53054-3 0  9999","RA_OF_ASC_NODE":"183.1009","INCLINATION":"53.2160","REV_AT_EPOCH":"130","TLE_LINE2":"2 52685  53.2160 183.1009 0002557  57.1554 311.7567 15.08839959  1304"},{"ELEMENT_SET_NO":"999","COUNTRY_CODE":"US","OBJECT_TYPE":"PAYLOAD","TIME_SYSTEM":"UTC","CENTER_NAME":"EARTH","EPOCH":"2022-08-25T22:00:00.999936","ARG_OF_PERICENTER":"57.1415","MEAN_MOTION":"15.08837140","SEMIMAJOR_AXIS":"6917.889","REF_FRAME":"TEME","INCLINATION":"53.2156","RA_OF_ASC_NODE":"183.1098","TLE_LINE1":"1 52686U 22053AG  22237.91667824 -.00006466  00000-0 -38848-3 0  9996","GP_ID":"211008934","FILE":"3547674","REV_AT_EPOCH":"130","TLE_LINE2":"2 52686  53.2156 183.1098 0002422  57.1415 251.7860 15.08837140  1304","MEAN_ANOMALY":"251.7860","OBJECT_ID":"2022-053AG","CLASSIFICATION_TYPE":"U","MEAN_MOTION_DDOT":"0.0000000000000","RCS_SIZE":"LARGE","MEAN_MOTION_DOT":"-0.00006466","BSTAR":"-0.00038848000000","EPHEMERIS_TYPE":"0","LAUNCH_DATE":"2022-05-18","PERIAPSIS":"538.079","SITE":"AFETR","ECCENTRICITY":"0.00024220","APOAPSIS":"541.430","DECAY_DATE":null,"OBJECT_NAME":"STARLINK-4005","MEAN_ELEMENT_THEORY":"SGP4","PERIOD":"95.438","NORAD_CAT_ID":"52686"},{"LAUNCH_DATE":"2022-05-18","SITE":"AFETR","PERIAPSIS":"538.008","DECAY_DATE":null,"APOAPSIS":"541.370","ECCENTRICITY":"0.00024300","OBJECT_NAME":"STARLINK-3981","MEAN_ELEMENT_THEORY":"SGP4","PERIOD":"95.436","NORAD_CAT_ID":"52687","OBJECT_ID":"2022-053AH","MEAN_ANOMALY":"333.8917","CLASSIFICATION_TYPE":"U","MEAN_MOTION_DDOT":"0.0000000000000","RCS_SIZE":"LARGE","MEAN_MOTION_DOT":"-0.00008308","BSTAR":"-0.00050416000000","EPHEMERIS_TYPE":"0","REF_FRAME":"TEME","TLE_LINE1":"1 52687U 22053AH  22237.91667824 -.00008308  00000-0 -50416-3 0  9999","RA_OF_ASC_NODE":"183.0989","INCLINATION":"53.2169","FILE":"3547674","GP_ID":"211009928","REV_AT_EPOCH":"130","TLE_LINE2":"2 52687  53.2169 183.0989 0002430  54.9938 333.8917 15.08858400  1308","ELEMENT_SET_NO":"999","COUNTRY_CODE":"US","OBJECT_TYPE":"PAYLOAD","TIME_SYSTEM":"UTC","CENTER_NAME":"EARTH","ARG_OF_PERICENTER":"54.9938","EPOCH":"2022-08-25T22:00:00.999936","MEAN_MOTION":"15.08858400","SEMIMAJOR_AXIS":"6917.824"},{"CLASSIFICATION_TYPE":"U","MEAN_ANOMALY":"293.3569","OBJECT_ID":"2022-053AJ","EPHEMERIS_TYPE":"0","MEAN_MOTION_DOT":"-0.00007227","BSTAR":"-0.00043648000000","RCS_SIZE":"LARGE","MEAN_MOTION_DDOT":"0.0000000000000","APOAPSIS":"541.423","ECCENTRICITY":"0.00023850","DECAY_DATE":null,"SITE":"AFETR","PERIAPSIS":"538.123","LAUNCH_DATE":"2022-05-18","NORAD_CAT_ID":"52688","PERIOD":"95.438","MEAN_ELEMENT_THEORY":"SGP4","OBJECT_NAME":"STARLINK-4032","CENTER_NAME":"EARTH","TIME_SYSTEM":"UTC","OBJECT_TYPE":"PAYLOAD","COUNTRY_CODE":"US","ELEMENT_SET_NO":"999","SEMIMAJOR_AXIS":"6917.908","MEAN_MOTION":"15.08830851","ARG_OF_PERICENTER":"50.2926","EPOCH":"2022-08-25T22:00:00.999936","GP_ID":"211009071","FILE":"3547674","RA_OF_ASC_NODE":"183.0992","INCLINATION":"53.2161","TLE_LINE1":"1 52688U 22053AJ  22237.91667824 -.00007227  00000-0 -43648-3 0  9998","REF_FRAME":"TEME","TLE_LINE2":"2 52688  53.2161 183.0992 0002385  50.2926 293.3569 15.08830851  1303","REV_AT_EPOCH":"130"},{"RCS_SIZE":"LARGE","MEAN_MOTION_DDOT":"0.0000000000000","EPHEMERIS_TYPE":"0","BSTAR":"-0.00061240000000","MEAN_MOTION_DOT":"-0.00010026","OBJECT_ID":"2022-053AK","MEAN_ANOMALY":"28.8277","CLASSIFICATION_TYPE":"U","MEAN_ELEMENT_THEORY":"SGP4","OBJECT_NAME":"STARLINK-4078","NORAD_CAT_ID":"52689","PERIOD":"95.436","SITE":"AFETR","PERIAPSIS":"538.176","LAUNCH_DATE":"2022-05-18","DECAY_DATE":null,"APOAPSIS":"541.213","ECCENTRICITY":"0.00021950","MEAN_MOTION":"15.08856744","EPOCH":"2022-08-25T22:00:00.999936","ARG_OF_PERICENTER":"60.0617","SEMIMAJOR_AXIS":"6917.829","OBJECT_TYPE":"PAYLOAD","COUNTRY_CODE":"US","ELEMENT_SET_NO":"999","CENTER_NAME":"EARTH","TIME_SYSTEM":"UTC","TLE_LINE2":"2 52689  53.2175 183.1006 0002195  60.0617  28.8277 15.08856744  1307","REV_AT_EPOCH":"130","TLE_LINE1":"1 52689U 22053AK  22237.91667824 -.00010026  00000-0 -61240-3 0  9998","RA_OF_ASC_NODE":"183.1006","INCLINATION":"53.2175","REF_FRAME":"TEME","FILE":"3547674","GP_ID":"211009621"}];
